[{"OBJECT_NAME":"STARLINK-5807","OBJECT_ID":"2023-028BC","EPOCH":"2026-03-09T17:57:40.405248","MEAN_MOTION":14.98325973,"ECCENTRICITY":0.00030261,"INCLINATION":70.0005,"RA_OF_ASC_NODE":204.3602,"ARG_OF_PERICENTER":266.277,"MEAN_ANOMALY":93.8043,"EPHEMERIS_TYPE":0,"CLASSIFICATION_TYPE":"U","NORAD_CAT_ID":55791,"ELEMENT_SET_NO":999,"REV_AT_EPOCH":16703,"BSTAR":0.00010876269,"MEAN_MOTION_DOT":1.205e-5,"MEAN_MOTION_DDOT":0},{"OBJECT_NAME":"UNKNOWN","OBJECT_ID":"","EPOCH":"2026-03-08T03:02:18.381696","MEAN_MOTION":13.28400509,"ECCENTRICITY":0.0771408,"INCLINATION":65.841,"RA_OF_ASC_NODE":337.3842,"ARG_OF_PERICENTER":230.1713,"MEAN_ANOMALY":122.8971,"EPHEMERIS_TYPE":0,"CLASSIFICATION_TYPE":"U","NORAD_CAT_ID":82912,"ELEMENT_SET_NO":999,"REV_AT_EPOCH":59066,"BSTAR":0.001101,"MEAN_MOTION_DOT":2.628e-5,"MEAN_MOTION_DDOT":0}]
